{
    "links": {
        "self": "http://www.neowsapp.com/rest/v1/neo/3337024?api_key=iIulBulltgU6a56xZRHN4H3l9WmuAYTsLGpBGhQ2"
    },
    "id": "3337024",
    "neo_reference_id": "3337024",
    "name": "(2006 MA)",
    "designation": "2006 MA",
    "nasa_jpl_url": "http://ssd.jpl.nasa.gov/sbdb.cgi?sstr=3337024",
    "absolute_magnitude_h": 18.9,
    "estimated_diameter": {
        "kilometers": {
            "estimated_diameter_min": 0.4411182,
            "estimated_diameter_max": 0.9863702813
        },
        "meters": {
            "estimated_diameter_min": 441.1181999969,
            "estimated_diameter_max": 986.3702813054
        },
        "miles": {
            "estimated_diameter_min": 0.2740980571,
            "estimated_diameter_max": 0.6129018881
        },
        "feet": {
            "estimated_diameter_min": 1447.2382352778,
            "estimated_diameter_max": 3236.1230737181
        }
    },
    "is_potentially_hazardous_asteroid": false,
    "close_approach_data": [
        {
            "close_approach_date": "2019-07-03",
            "close_approach_date_full": "2019-Jul-03 11:46",
            "epoch_date_close_approach": 1562154360000,
            "relative_velocity": {
                "kilometers_per_second": "14.0073324",
                "kilometers_per_hour": "50426.3966399417",
                "miles_per_hour": "31333.0018455238"
            },
            "miss_distance": {
                "astronomical": "0.4993320924",
                "lunar": "194.2401839436",
                "kilometers": "74699017.445683188",
                "miles": "46415817.1107084744"
            },
            "orbiting_body": "Earth"
        },
        {
            "close_approach_date": "2062-07-03",
            "close_approach_date_full": "2062-Jul-03 02:42",
            "epoch_date_close_approach": 2919120120000,
            "relative_velocity": {
                "kilometers_per_second": "13.1933101153",
                "kilometers_per_hour": "47495.9164152002",
                "miles_per_hour": "29512.1153969893"
            },
            "miss_distance": {
                "astronomical": "0.4840559151",
                "lunar": "188.2977509739",
                "kilometers": "72413733.859860837",
                "miles": "44995807.7371880706"
            },
            "orbiting_body": "Earth"
        },
        {
            "close_approach_date": "2105-07-03",
            "close_approach_date_full": "2105-Jul-03 11:31",
            "epoch_date_close_approach": 4276063860000,
            "relative_velocity": {
                "kilometers_per_second": "12.482381152",
                "kilometers_per_hour": "44936.5721471064",
                "miles_per_hour": "27921.8383988506"
            },
            "miss_distance": {
                "astronomical": "0.4776045891",
                "lunar": "185.7881851599",
                "kilometers": "71448629.231585217",
                "miles": "44396119.5290893146"
            },
            "orbiting_body": "Earth"
        },
        {
            "close_approach_date": "2148-07-03",
            "close_approach_date_full": "2148-Jul-03 08:45",
            "epoch_date_close_approach": 5633052300000,
            "relative_velocity": {
                "kilometers_per_second": "12.2869645684",
                "kilometers_per_hour": "44233.0724461892",
                "miles_per_hour": "27484.7110430224"
            },
            "miss_distance": {
                "astronomical": "0.4813374408",
                "lunar": "187.2402644712",
                "kilometers": "72007055.894931096",
                "miles": "44743109.7675412848"
            },
            "orbiting_body": "Earth"
        },
        {
            "close_approach_date": "2191-07-03",
            "close_approach_date_full": "2191-Jul-03 05:23",
            "epoch_date_close_approach": 6989952180000,
            "relative_velocity": {
                "kilometers_per_second": "12.2978491393",
                "kilometers_per_hour": "44272.2569015866",
                "miles_per_hour": "27509.0587397664"
            },
            "miss_distance": {
                "astronomical": "0.4740466048",
                "lunar": "184.4041292672",
                "kilometers": "70916362.358811776",
                "miles": "44065384.2307474688"
            },
            "orbiting_body": "Earth"
        }
    ],
    "orbital_data": {
        "orbit_id": "66",
        "orbit_determination_date": "2019-12-20 07:34:03",
        "first_observation_date": "2006-06-18",
        "last_observation_date": "2019-12-20",
        "data_arc_in_days": 4933,
        "observations_used": 264,
        "orbit_uncertainty": "0",
        "minimum_orbit_intersection": ".470993",
        "jupiter_tisserand_invariant": "3.064",
        "epoch_osculation": "2459000.5",
        "eccentricity": ".5304137543103061",
        "semi_major_axis": "2.646917723778244",
        "inclination": "24.75027166776852",
        "ascending_node_longitude": "241.0351145115957",
        "orbital_period": "1572.928892406851",
        "perihelion_distance": "1.242956156558536",
        "perihelion_argument": "81.71408208070459",
        "aphelion_distance": "4.050879290997951",
        "perihelion_time": "2458705.010664831018",
        "mean_anomaly": "67.62935131673989",
        "mean_motion": ".2288723932390474",
        "equinox": "J2000",
        "orbit_class": {
            "orbit_class_type": "AMO",
            "orbit_class_description": "Near-Earth asteroid orbits similar to that of 1221 Amor",
            "orbit_class_range": "1.017 AU < q (perihelion) < 1.3 AU"
        }
    },
    "is_sentry_object": false
}